{"type": "FeatureCollection", "features": [ {"type": "Feature", "properties": {"norad_id": 31915, "name": "FENGYUN 1C DEB", "group": "fengyun-1c-debris", "lat": 1.4184265186058953, "lon": 8.920314166243669, "alt_km": 859.1892350680655, "timestamp": "2025-12-17T10:52:54.638157+00:00", "meta": {"OBJECT_NAME": "FENGYUN 1C DEB", "OBJECT_ID": "1999-025CLS", "EPOCH": "2025-12-16T19:36:52.674048", "MEAN_MOTION": 14.1622563, "ECCENTRICITY": 0.01011515, "INCLINATION": 98.632, "RA_OF_ASC_NODE": 8.5191, "ARG_OF_PERICENTER": 258.2789, "MEAN_ANOMALY": 100.7023, "EPHEMERIS_TYPE": 0, "CLASSIFICATION_TYPE": "U", "NORAD_CAT_ID": 31915, "ELEMENT_SET_NO": 999, "REV_AT_EPOCH": 64165, "BSTAR": 0.00069864424, "MEAN_MOTION_DOT": 1.411e-05, "MEAN_MOTION_DDOT": 0}, "tle": {"line1": "1 31915U 99025CLS 25350.81727632  .00001411  00000+0  69864-3 0  9997", "line2": "2 31915  98.6320   8.5191 0101151 258.2789 100.7023 14.16225630641658"}}, "geometry": {"type": "Point", "coordinates": [8.920314166243669, 1.4184265186058953]}}, {"type": "Feature", "properties": {"norad_id": 31916, "name": "FENGYUN 1C DEB", "group": "fengyun-1c-debris", "lat": 59.739633660495635, "lon": -86.63320992752928, "alt_km": 692.0786051677424, "timestamp": "2025-12-17T10:52:54.638169+00:00", "meta": {"OBJECT_NAME": "FENGYUN 1C DEB", "OBJECT_ID": "1999-025CLT", "EPOCH": "2025-12-15T23:08:21.633792", "MEAN_MOTION": 14.32538908, "ECCENTRICITY": 0.01460081, "INCLINATION": 99.3305, "RA_OF_ASC_NODE": 75.3969, "ARG_OF_PERICENTER": 87.3339, "MEAN_ANOMALY": 274.4545, "EPHEMERIS_TYPE": 0, "CLASSIFICATION_TYPE": "U", "NORAD_CAT_ID": 31916, "ELEMENT_SET_NO": 999, "REV_AT_EPOCH": 64573, "BSTAR": 0.0009298635, "MEAN_MOTION_DOT": 2.787e-05, "MEAN_MOTION_DDOT": 0}, "tle": {"line1": "1 31916U 99025CLT 25349.96413928  .00002787  00000+0  92986-3 0  9990", "line2": "2 31916  99.3305  75.3969 0146008  87.3339 274.4545 14.32538908645731"}}, "geometry": {"type": "Point", "coordinates": [-86.63320992752928, 59.739633660495635]}}, {"type": "Feature", "properties": {"norad_id": 31917, "name": "FENGYUN 1C DEB", "group": "fengyun-1c-debris", "lat": 39.99122930261079, "lon": 171.19273523368255, "alt_km": 865.3407449087335, "timestamp": "2025-12-17T10:52:54.638180+00:00", "meta": {"OBJECT_NAME": "FENGYUN 1C DEB", "OBJECT_ID": "1999-025CLU", "EPOCH": "2025-12-13T18:31:52.910688", "MEAN_MOTION": 14.37629898, "ECCENTRICITY": 0.01891205, "INCLINATION": 98.3608, "RA_OF_ASC_NODE": 340.524, "ARG_OF_PERICENTER": 290.2859, "MEAN_ANOMALY": 249.1199, "EPHEMERIS_TYPE": 0, "CLASSIFICATION_TYPE": "U", "NORAD_CAT_ID": 31917, "ELEMENT_SET_NO": 999, "REV_AT_EPOCH": 96436, "BSTAR": 0.00083295551, "MEAN_MOTION_DOT": 3.025e-05, "MEAN_MOTION_DDOT": 0}, "tle": {"line1": "1 31917U 99025CLU 25347.77214017  .00003025  00000+0  83296-3 0  9996", "line2": "2 31917  98.3608 340.5240 0189120 290.2859 249.1199 14.37629898964361"}}, "geometry": {"type": "Point", "coordinates": [171.19273523368255, 39.99122930261079]}}, {"type": "Feature", "properties": {"norad_id": 31919, "name": "FENGYUN 1C DEB", "group": "fengyun-1c-debris", "lat": 71.1300079498686, "lon": -17.824355391739765, "alt_km": 726.8151863453395, "timestamp": "2025-12-17T10:52:54.638190+00:00", "meta": {"OBJECT_NAME": "FENGYUN 1C DEB", "OBJECT_ID": "1999-025CLW", "EPOCH": "2025-12-14T16:01:39.931392", "MEAN_MOTION": 14.4576379, "ECCENTRICITY": 0.01022422, "INCLINATION": 99.1012, "RA_OF_ASC_NODE": 131.2197, "ARG_OF_PERICENTER": 200.8797, "MEAN_ANOMALY": 176.7852, "EPHEMERIS_TYPE": 0, "CLASSIFICATION_TYPE": "U", "NORAD_CAT_ID": 31919, "ELEMENT_SET_NO": 999, "REV_AT_EPOCH": 97109, "BSTAR": 0.00055182053, "MEAN_MOTION_DOT": 2.032e-05, "MEAN_MOTION_DDOT": 0}, "tle": {"line1": "1 31919U 99025CLW 25348.66782328  .00002032  00000+0  55182-3 0  9992", "line2": "2 31919  99.1012 131.2197 0102242 200.8797 176.7852 14.45763790971093"}}, "geometry": {"type": "Point", "coordinates": [-17.824355391739765, 71.1300079498686]}}, {"type": "Feature", "properties": {"norad_id": 31921, "name": "FENGYUN 1C DEB", "group": "fengyun-1c-debris", "lat": 33.15738134317707, "lon": -122.4455305681189, "alt_km": 1092.8454873535866, "timestamp": "2025-12-17T10:52:54.638200+00:00", "meta": {"OBJECT_NAME": "FENGYUN 1C DEB", "OBJECT_ID": "1999-025CLY", "EPOCH": "2025-12-14T11:07:39.123264", "MEAN_MOTION": 13.75272567, "ECCENTRICITY": 0.02016687, "INCLINATION": 99.3382, "RA_OF_ASC_NODE": 240.7973, "ARG_OF_PERICENTER": 260.4861, "MEAN_ANOMALY": 97.3447, "EPHEMERIS_TYPE": 0, "CLASSIFICATION_TYPE": "U", "NORAD_CAT_ID": 31921, "ELEMENT_SET_NO": 999, "REV_AT_EPOCH": 92330, "BSTAR": 0.001077077, "MEAN_MOTION_DOT": 1.153e-05, "MEAN_MOTION_DDOT": 0}, "tle": {"line1": "1 31921U 99025CLY 25348.46364726  .00001153  00000+0  10771-2 0  9998", "line2": "2 31921  99.3382 240.7973 0201668 260.4861  97.3447 13.75272567923300"}}, "geometry": {"type": "Point", "coordinates": [-122.4455305681189, 33.15738134317707]}}, {"type": "Feature", "properties": {"norad_id": 31922, "name": "FENGYUN 1C DEB", "group": "fengyun-1c-debris", "lat": 76.73722172127052, "lon": -156.28419380271714, "alt_km": 923.6535546478153, "timestamp": "2025-12-17T10:52:54.638211+00:00", "meta": {"OBJECT_NAME": "FENGYUN 1C DEB", "OBJECT_ID": "1999-025CLZ", "EPOCH": "2025-12-16T22:32:41.059968", "MEAN_MOTION": 13.86622417, "ECCENTRICITY": 0.01615026, "INCLINATION": 98.8044, "RA_OF_ASC_NODE": 342.1201, "ARG_OF_PERICENTER": 15.0524, "MEAN_ANOMALY": 38.3979, "EPHEMERIS_TYPE": 0, "CLASSIFICATION_TYPE": "U", "NORAD_CAT_ID": 31922, "ELEMENT_SET_NO": 999, "REV_AT_EPOCH": 93075, "BSTAR": 0.0014040879, "MEAN_MOTION_DOT": 1.769e-05, "MEAN_MOTION_DDOT": 0}, "tle": {"line1": "1 31922U 99025CLZ 25350.93936412  .00001769  00000+0  14041-2 0  9998", "line2": "2 31922  98.8044 342.1201 0161502  15.0524  38.3979 13.86622417930750"}}, "geometry": {"type": "Point", "coordinates": [-156.28419380271714, 76.73722172127052]}}, {"type": "Feature", "properties": {"norad_id": 31923, "name": "FENGYUN 1C DEB", "group": "fengyun-1c-debris", "lat": 69.6943898256875, "lon": -71.81075026520267, "alt_km": 1269.282059856886, "timestamp": "2025-12-17T10:52:54.638221+00:00", "meta": {"OBJECT_NAME": "FENGYUN 1C DEB", "OBJECT_ID": "1999-025CMA", "EPOCH": "2025-12-10T04:39:01.801440", "MEAN_MOTION": 13.5487962, "ECCENTRICITY": 0.02988887, "INCLINATION": 98.4426, "RA_OF_ASC_NODE": 78.306, "ARG_OF_PERICENTER": 310.5348, "MEAN_ANOMALY": 47.0108, "EPHEMERIS_TYPE": 0, "CLASSIFICATION_TYPE": "U", "NORAD_CAT_ID": 31923, "ELEMENT_SET_NO": 999, "REV_AT_EPOCH": 63600, "BSTAR": 0.0017886156, "MEAN_MOTION_DOT": 1.598e-05, "MEAN_MOTION_DDOT": 0}, "tle": {"line1": "1 31923U 99025CMA 25344.19377085  .00001598  00000+0  17886-2 0  9995", "line2": "2 31923  98.4426  78.3060 0298888 310.5348  47.0108 13.54879620636004"}}, "geometry": {"type": "Point", "coordinates": [-71.81075026520267, 69.6943898256875]}}, {"type": "Feature", "properties": {"norad_id": 31924, "name": "FENGYUN 1C DEB", "group": "fengyun-1c-debris", "lat": 7.69728149297025, "lon": -30.688668509322774, "alt_km": 1009.6218730766213, "timestamp": "2025-12-17T10:52:54.638231+00:00", "meta": {"OBJECT_NAME": "FENGYUN 1C DEB", "OBJECT_ID": "1999-025CMB", "EPOCH": "2025-12-16T09:25:22.960704", "MEAN_MOTION": 13.63918543, "ECCENTRICITY": 0.0272761, "INCLINATION": 98.3999, "RA_OF_ASC_NODE": 147.249, "ARG_OF_PERICENTER": 87.2314, "MEAN_ANOMALY": 276.0016, "EPHEMERIS_TYPE": 0, "CLASSIFICATION_TYPE": "U", "NORAD_CAT_ID": 31924, "ELEMENT_SET_NO": 999, "REV_AT_EPOCH": 91517, "BSTAR": 0.0010972802, "MEAN_MOTION_DOT": 1.089e-05, "MEAN_MOTION_DDOT": 0}, "tle": {"line1": "1 31924U 99025CMB 25350.39262686  .00001089  00000+0  10973-2 0  9990", "line2": "2 31924  98.3999 147.2490 0272761  87.2314 276.0016 13.63918543915173"}}, "geometry": {"type": "Point", "coordinates": [-30.688668509322774, 7.69728149297025]}}, {"type": "Feature", "properties": {"norad_id": 31926, "name": "FENGYUN 1C DEB", "group": "fengyun-1c-debris", "lat": -65.69799815204328, "lon": 107.27360080223659, "alt_km": 779.1897522186009, "timestamp": "2025-12-17T10:52:54.638241+00:00", "meta": {"OBJECT_NAME": "FENGYUN 1C DEB", "OBJECT_ID": "1999-025CMD", "EPOCH": "2025-12-15T17:14:12.111936", "MEAN_MOTION": 14.30765602, "ECCENTRICITY": 0.00394583, "INCLINATION": 98.9573, "RA_OF_ASC_NODE": 85.0432, "ARG_OF_PERICENTER": 244.8671, "MEAN_ANOMALY": 114.8415, "EPHEMERIS_TYPE": 0, "CLASSIFICATION_TYPE": "U", "NORAD_CAT_ID": 31926, "ELEMENT_SET_NO": 999, "REV_AT_EPOCH": 95270, "BSTAR": 0.0016475717, "MEAN_MOTION_DOT": 4.307e-05, "MEAN_MOTION_DDOT": 0}, "tle": {"line1": "1 31926U 99025CMD 25349.71819574  .00004307  00000+0  16476-2 0  9990", "line2": "2 31926  98.9573  85.0432 0039458 244.8671 114.8415 14.30765602952708"}}, "geometry": {"type": "Point", "coordinates": [107.27360080223659, -65.69799815204328]}}, {"type": "Feature", "properties": {"norad_id": 31929, "name": "FENGYUN 1C DEB", "group": "fengyun-1c-debris", "lat": 76.40543983880063, "lon": -19.330072626626563, "alt_km": 740.2761811461442, "timestamp": "2025-12-17T10:52:54.638251+00:00", "meta": {"OBJECT_NAME": "FENGYUN 1C DEB", "OBJECT_ID": "1999-025CME", "EPOCH": "2025-12-12T14:57:05.736384", "MEAN_MOTION": 14.34936907, "ECCENTRICITY": 0.0074244, "INCLINATION": 98.7906, "RA_OF_ASC_NODE": 115.9705, "ARG_OF_PERICENTER": 55.663, "MEAN_ANOMALY": 305.155, "EPHEMERIS_TYPE": 0, "CLASSIFICATION_TYPE": "U", "NORAD_CAT_ID": 31929, "ELEMENT_SET_NO": 999, "REV_AT_EPOCH": 70644, "BSTAR": 0.00072423089, "MEAN_MOTION_DOT": 2.08e-05, "MEAN_MOTION_DDOT": 0}, "tle": {"line1": "1 31929U 99025CME 25346.62298306  .00002080  00000+0  72423-3 0  9995", "line2": "2 31929  98.7906 115.9705 0074244  55.6630 305.1550 14.34936907706445"}}, "geometry": {"type": "Point", "coordinates": [-19.330072626626563, 76.40543983880063]}}]}